CCSDS_OMM_VERS = 2.0
CREATION_DATE  = 
ORIGINATOR     = 

OBJECT_NAME    = DISKSAT C
OBJECT_ID      = 2025-305A
CENTER_NAME    = EARTH
REF_FRAME      = TEME
TIME_SYSTEM    = UTC
MEAN_ELEMENT_THEORY = SGP/SGP4

EPOCH          = 2026-01-16T10:37:10.822368
MEAN_MOTION    = 15.06426691
ECCENTRICITY   = .000169
INCLINATION    = 45.0016
RA_OF_ASC_NODE = 167.1376
ARG_OF_PERICENTER = 39.5506
MEAN_ANOMALY   = 320.5492

EPHEMERIS_TYPE = 0
CLASSIFICATION_TYPE = U
NORAD_CAT_ID   = 67219
ELEMENT_SET_NO = 999
REV_AT_EPOCH   = 441
BSTAR          = .50186248E-3
MEAN_MOTION_DOT = .7284E-4
MEAN_MOTION_DDOT = 0

CCSDS_OMM_VERS = 2.0
CREATION_DATE  = 
ORIGINATOR     = 

OBJECT_NAME    = DISKSAT B
OBJECT_ID      = 2025-305B
CENTER_NAME    = EARTH
REF_FRAME      = TEME
TIME_SYSTEM    = UTC
MEAN_ELEMENT_THEORY = SGP/SGP4

EPOCH          = 2026-01-16T10:38:39.844608
MEAN_MOTION    = 15.06353229
ECCENTRICITY   = .00013891
INCLINATION    = 45.0016
RA_OF_ASC_NODE = 167.1437
ARG_OF_PERICENTER = 45.5285
MEAN_ANOMALY   = 314.5703

EPHEMERIS_TYPE = 0
CLASSIFICATION_TYPE = U
NORAD_CAT_ID   = 67220
ELEMENT_SET_NO = 999
REV_AT_EPOCH   = 441
BSTAR          = .44741246E-3
MEAN_MOTION_DOT = .6454E-4
MEAN_MOTION_DDOT = 0

CCSDS_OMM_VERS = 2.0
CREATION_DATE  = 
ORIGINATOR     = 

OBJECT_NAME    = DISKSAT D
OBJECT_ID      = 2025-305C
CENTER_NAME    = EARTH
REF_FRAME      = TEME
TIME_SYSTEM    = UTC
MEAN_ELEMENT_THEORY = SGP/SGP4

EPOCH          = 2026-01-16T10:39:52.358400
MEAN_MOTION    = 15.06319643
ECCENTRICITY   = .00017996
INCLINATION    = 45.0016
RA_OF_ASC_NODE = 167.1505
ARG_OF_PERICENTER = 55.8993
MEAN_ANOMALY   = 304.2053

EPHEMERIS_TYPE = 0
CLASSIFICATION_TYPE = U
NORAD_CAT_ID   = 67221
ELEMENT_SET_NO = 999
REV_AT_EPOCH   = 441
BSTAR          = .42102735E-3
MEAN_MOTION_DOT = .6053E-4
MEAN_MOTION_DDOT = 0

CCSDS_OMM_VERS = 2.0
CREATION_DATE  = 
ORIGINATOR     = 

OBJECT_NAME    = DISKSAT A
OBJECT_ID      = 2025-305D
CENTER_NAME    = EARTH
REF_FRAME      = TEME
TIME_SYSTEM    = UTC
MEAN_ELEMENT_THEORY = SGP/SGP4

EPOCH          = 2026-01-16T13:52:37.846848
MEAN_MOTION    = 15.06295171
ECCENTRICITY   = .00017705
INCLINATION    = 45.0018
RA_OF_ASC_NODE = 166.4587
ARG_OF_PERICENTER = 67.5762
MEAN_ANOMALY   = 292.5300

EPHEMERIS_TYPE = 0
CLASSIFICATION_TYPE = U
NORAD_CAT_ID   = 67222
ELEMENT_SET_NO = 999
REV_AT_EPOCH   = 442
BSTAR          = .59354775E-3
MEAN_MOTION_DOT = .8629E-4
MEAN_MOTION_DDOT = 0

CCSDS_OMM_VERS = 2.0
CREATION_DATE  = 
ORIGINATOR     = 

OBJECT_NAME    = ELECTRON KICK STAGE R/B
OBJECT_ID      = 2025-305E
CENTER_NAME    = EARTH
REF_FRAME      = TEME
TIME_SYSTEM    = UTC
MEAN_ELEMENT_THEORY = SGP/SGP4

EPOCH          = 2026-01-16T02:42:43.677792
MEAN_MOTION    = 15.54146510
ECCENTRICITY   = .0161442
INCLINATION    = 44.9844
RA_OF_ASC_NODE = 157.9770
ARG_OF_PERICENTER = 307.5123
MEAN_ANOMALY   = 51.1189

EPHEMERIS_TYPE = 0
CLASSIFICATION_TYPE = U
NORAD_CAT_ID   = 67223
ELEMENT_SET_NO = 999
REV_AT_EPOCH   = 449
BSTAR          = .75810586E-3
MEAN_MOTION_DOT = .88759E-3
MEAN_MOTION_DDOT = .1059532E-4

CCSDS_OMM_VERS = 2.0
CREATION_DATE  = 
ORIGINATOR     = 

OBJECT_NAME    = TJS-23
OBJECT_ID      = 2025-306A
CENTER_NAME    = EARTH
REF_FRAME      = TEME
TIME_SYSTEM    = UTC
MEAN_ELEMENT_THEORY = SGP/SGP4

EPOCH          = 2026-01-16T00:30:14.965056
MEAN_MOTION    = 1.00270464
ECCENTRICITY   = .0000683
INCLINATION    = 5.9337
RA_OF_ASC_NODE = 298.2715
ARG_OF_PERICENTER = 66.5672
MEAN_ANOMALY   = 293.6677

EPHEMERIS_TYPE = 0
CLASSIFICATION_TYPE = U
NORAD_CAT_ID   = 67226
ELEMENT_SET_NO = 999
REV_AT_EPOCH   = 36
BSTAR          = 0
MEAN_MOTION_DOT = .43E-6
MEAN_MOTION_DDOT = 0

CCSDS_OMM_VERS = 2.0
CREATION_DATE  = 
ORIGINATOR     = 

OBJECT_NAME    = CZ-5 R/B
OBJECT_ID      = 2025-306B
CENTER_NAME    = EARTH
REF_FRAME      = TEME
TIME_SYSTEM    = UTC
MEAN_ELEMENT_THEORY = SGP/SGP4

EPOCH          = 2026-01-15T16:46:30.154368
MEAN_MOTION    = 1.92547339
ECCENTRICITY   = .75777471
INCLINATION    = 16.2657
RA_OF_ASC_NODE = 290.3526
ARG_OF_PERICENTER = 195.0766
MEAN_ANOMALY   = 113.4984

EPHEMERIS_TYPE = 0
CLASSIFICATION_TYPE = U
NORAD_CAT_ID   = 67227
ELEMENT_SET_NO = 999
REV_AT_EPOCH   = 52
BSTAR          = .19859787E-2
MEAN_MOTION_DOT = .7182E-4
MEAN_MOTION_DDOT = 0

CCSDS_OMM_VERS = 2.0
CREATION_DATE  = 
ORIGINATOR     = 

OBJECT_NAME    = QPS-SAR-15
OBJECT_ID      = 2025-307A
CENTER_NAME    = EARTH
REF_FRAME      = TEME
TIME_SYSTEM    = UTC
MEAN_ELEMENT_THEORY = SGP/SGP4

EPOCH          = 2026-01-16T13:57:57.211488
MEAN_MOTION    = 14.97379647
ECCENTRICITY   = .00076773
INCLINATION    = 42.0087
RA_OF_ASC_NODE = 339.5253
ARG_OF_PERICENTER = 81.1946
MEAN_ANOMALY   = 278.9748

EPHEMERIS_TYPE = 0
CLASSIFICATION_TYPE = U
NORAD_CAT_ID   = 67228
ELEMENT_SET_NO = 999
REV_AT_EPOCH   = 394
BSTAR          = .31409766E-3
MEAN_MOTION_DOT = .3532E-4
MEAN_MOTION_DDOT = 0

CCSDS_OMM_VERS = 2.0
CREATION_DATE  = 
ORIGINATOR     = 

OBJECT_NAME    = ELECTRON R/B
OBJECT_ID      = 2025-307B
CENTER_NAME    = EARTH
REF_FRAME      = TEME
TIME_SYSTEM    = UTC
MEAN_ELEMENT_THEORY = SGP/SGP4

EPOCH          = 2026-01-16T12:34:23.213856
MEAN_MOTION    = 15.90309798
ECCENTRICITY   = .0129194
INCLINATION    = 41.9914
RA_OF_ASC_NODE = 323.1184
ARG_OF_PERICENTER = 71.1476
MEAN_ANOMALY   = 290.3342

EPHEMERIS_TYPE = 0
CLASSIFICATION_TYPE = U
NORAD_CAT_ID   = 67229
ELEMENT_SET_NO = 999
REV_AT_EPOCH   = 412
BSTAR          = .15465E-2
MEAN_MOTION_DOT = .1074131E-1
MEAN_MOTION_DDOT = .78394E-5

CCSDS_OMM_VERS = 2.0
CREATION_DATE  = 
ORIGINATOR     = 

OBJECT_NAME    = SPACEMOBILE-006
OBJECT_ID      = 2025-309A
CENTER_NAME    = EARTH
REF_FRAME      = TEME
TIME_SYSTEM    = UTC
MEAN_ELEMENT_THEORY = SGP/SGP4

EPOCH          = 2026-01-16T11:53:13.186464
MEAN_MOTION    = 15.17742607
ECCENTRICITY   = .00121213
INCLINATION    = 52.9984
RA_OF_ASC_NODE = 305.9975
ARG_OF_PERICENTER = 33.3140
MEAN_ANOMALY   = 326.8614

EPHEMERIS_TYPE = 0
CLASSIFICATION_TYPE = U
NORAD_CAT_ID   = 67232
ELEMENT_SET_NO = 999
REV_AT_EPOCH   = 355
BSTAR          = -.919635E-5
MEAN_MOTION_DOT = -.509E-5
MEAN_MOTION_DDOT = 0

CCSDS_OMM_VERS = 2.0
CREATION_DATE  = 
ORIGINATOR     = 

OBJECT_NAME    = LVM3 R/B
OBJECT_ID      = 2025-309B
CENTER_NAME    = EARTH
REF_FRAME      = TEME
TIME_SYSTEM    = UTC
MEAN_ELEMENT_THEORY = SGP/SGP4

EPOCH          = 2026-01-16T14:22:37.710912
MEAN_MOTION    = 15.19695673
ECCENTRICITY   = .00118766
INCLINATION    = 52.9292
RA_OF_ASC_NODE = 304.9729
ARG_OF_PERICENTER = 58.4568
MEAN_ANOMALY   = 301.7583

EPHEMERIS_TYPE = 0
CLASSIFICATION_TYPE = U
NORAD_CAT_ID   = 67233
ELEMENT_SET_NO = 999
REV_AT_EPOCH   = 357
BSTAR          = .29003004E-3
MEAN_MOTION_DOT = .5959E-4
MEAN_MOTION_DDOT = 0

CCSDS_OMM_VERS = 2.0
CREATION_DATE  = 
ORIGINATOR     = 

OBJECT_NAME    = 2025-310A
OBJECT_ID      = 2025-310A
CENTER_NAME    = EARTH
REF_FRAME      = TEME
TIME_SYSTEM    = UTC
MEAN_ELEMENT_THEORY = SGP/SGP4

EPOCH          = 2026-01-14T17:20:52.977696
MEAN_MOTION    = 14.75705364
ECCENTRICITY   = .0001912
INCLINATION    = 97.9664
RA_OF_ASC_NODE = 24.2349
ARG_OF_PERICENTER = 179.1290
MEAN_ANOMALY   = 180.9923

EPHEMERIS_TYPE = 0
CLASSIFICATION_TYPE = U
NORAD_CAT_ID   = 67234
ELEMENT_SET_NO = 999
REV_AT_EPOCH   = 299
BSTAR          = .869375E-5
MEAN_MOTION_DOT = .9E-7
MEAN_MOTION_DDOT = 0

